CUTE-1 (CO-55)          
1 27844U 03031E   25160.96084438  .00000270  00000+0  13643-3 0  9996
2 27844  98.6753 169.2294 0009600 178.9605 181.1595 14.23997061138698
CUBESAT XI-IV (CO-57)   
1 27848U 03031J   25160.55793836  .00000226  00000+0  11890-3 0  9997
2 27848  98.6781 168.8375 0009070 197.7670 162.3192 14.23331386138416
CUBESAT XI-V            
1 28895U 05043F   25161.33443942  .00001128  00000+0  19203-3 0  9990
2 28895  98.2500 305.6939 0013371 307.6068  52.3924 14.71017225 47284
CUTE-1.7+APD II (CO-65) 
1 32785U 08021C   25160.87124606  .00004631  00000+0  33558-3 0  9994
2 32785  97.7839 132.0355 0009109 204.3359 155.7438 15.04430324929126
CANX-2                  
1 32790U 08021H   25160.90243898  .00002741  00000+0  21521-3 0  9996
2 32790  97.8223 130.6567 0011332 196.6064 163.4791 15.01732849928868
SEEDS II (CO-66)        
1 32791U 08021J   25160.90133237  .00009891  00000+0  47961-3 0  9991
2 32791  97.7265 140.9487 0004695 142.6256 217.5304 15.18714674930540
SWISSCUBE               
1 35932U 09051B   25160.63051572  .00000901  00000+0  19226-3 0  9992
2 35932  98.4307  56.8665 0005794 298.6380  61.4237 14.61338406834725
BEESAT-1                
1 35933U 09051C   25160.67340731  .00000766  00000+0  16700-3 0  9998
2 35933  98.4240  57.2642 0004467 316.9078  43.1772 14.60752396834780
ITUPSAT1                
1 35935U 09051E   25160.69038493  .00000698  00000+0  15719-3 0  9994
2 35935  98.4333  56.8221 0006834 322.5587  37.5135 14.59549802834381
TISAT 1                 
1 36799U 10035E   25160.72413509  .00010361  00000+0  53308-3 0  9990
2 36799  98.0595  74.7876 0005136  95.0623 265.1195 15.16637705810998
AEROCUBE 4.5A           
1 38767U 12048K   25160.52762862  .00020046  00000+0  53136-3 0  9990
2 38767  64.6472 225.5660 0099599 275.7536  83.2247 15.33426185314815
STRAND-1                
1 39090U 13009E   25161.51099473  .00000224  00000+0  90461-4 0  9998
2 39090  98.3823 346.1827 0007472 260.7915  99.2427 14.36819284643706
BRITE-AUSTRIA           
1 39091U 13009F   25160.47191422  .00000174  00000+0  73999-4 0  9991
2 39091  98.3881 344.4246 0008991 273.7120  86.3039 14.36310610643543
NEE-01 PEGASO           
1 39151U 13018B   25161.32243692  .00001913  00000+0  20017-3 0  9994
2 39151  98.0735 290.1878 0012186 311.3491  48.6677 14.90833632655258
POPACS 1                
1 39268U 13055D   25160.78528760  .00073080  48787-6  64300-3 0  9993
2 39268  80.9709  86.6833 0237207 343.7489  15.6230 15.40293306614669
POPACS 2                
1 39269U 13055E   25160.85207351  .00010698  00000+0  21156-3 0  9999
2 39269  80.9959 205.3476 0475244 296.2661  59.0446 14.75904312608015
POPACS 3                
1 39270U 13055F   25159.59657048  .00012236  00000+0  30616-3 0  9993
2 39270  81.0048 271.6791 0584963 121.0839 244.9121 14.47946161584346
ZACUBE-1 (TSHEPISOSAT)  
1 39417U 13066B   25160.85367923  .00003603  00000+0  31454-3 0  9998
2 39417  97.7798 117.8647 0045696  52.3606 308.1748 14.96652712624959
WNISAT-1                
1 39423U 13066H   25160.93684356  .00000424  00000+0  87682-4 0  9999
2 39423  97.6776 332.8027 0164558 324.6953  34.3436 14.57104684612508
TRITON-1                
1 39427U 13066M   25161.41821174  .00002603  00000+0  33317-3 0  9994
2 39427  97.8377  75.1701 0094738   4.8069 355.4030 14.79073828619271
GOMX-1                  
1 39430U 13066Q   25161.57681811  .00001338  00000+0  21426-3 0  9999
2 39430  97.6834  20.1807 0132141 188.6355 171.2578 14.67638633615554
CUBEBUG-2 (LO-74)       
1 39440U 13066AA  25160.81188324  .00002475  00000+0  25397-3 0  9991
2 39440  97.8497 105.3705 0061938 177.8072 182.3429 14.89935310621478
NEE-02 KRYSAOR          
1 39441U 13066AB  25160.78742339  .00001377  00000+0  16403-3 0  9998
2 39441  97.8559  99.1425 0068076 208.4693 151.2796 14.84366825620911
FUNCUBE-1 (AO-73)       
1 39444U 13066AE  25160.88000394  .00006116  00000+0  45787-3 0  9993
2 39444  97.7835 122.7952 0043427  29.2402 331.1240 15.02339959624228
UWE-3                   
1 39446U 13066AG  25160.80475690  .00003515  00000+0  33490-3 0  9990
2 39446  97.8238 111.7264 0054730 117.4877 243.1920 14.92895448621948
BRITE-CA1 (TORONTO)     
1 40020U 14033L   25161.32039238  .00000642  00000+0  10610-3 0  9994
2 40020  97.9259 293.5143 0080667  28.2018 332.3522 14.71628176587614
DUCHIFAT-1              
1 40021U 14033M   25160.59064477  .00018356  00000+0  66200-3 0  9993
2 40021  98.0940 174.9286 0007072 326.7544  33.3249 15.28572255598326
NANOSATC-BR1            
1 40024U 14033Q   25160.93489646  .00010364  00000+0  50765-3 0  9993
2 40024  98.0894 158.8838 0005908  50.9855 309.1902 15.18362323597262
QB50P1                  
1 40025U 14033R   25160.93979302  .00006157  00000+0  37749-3 0  9999
2 40025  98.0821 143.5514 0012052  60.1169 300.1255 15.10495826596699
QB50P2                  
1 40032U 14033Y   25160.90850260  .00005285  00000+0  34441-3 0  9992
2 40032  98.0431 132.3970 0008836  13.0807 347.0648 15.08351605596427
PERSEUS-M2              
1 40037U 14033AD  25161.50802431  .00001550  00000+0  15174-3 0  9994
2 40037  97.9559 101.0766 0013861  91.0872 269.1935 14.93734781595761
PERSEUS-M1              
1 40039U 14033AF  25161.36027571  .00001708  00000+0  16668-3 0  9998
2 40039  97.9298  95.8793 0013642  90.4021 269.8762 14.93720089595603
POLYITAN-1              
1 40042U 14033AJ  25161.55379435  .00008405  00000+0  40900-3 0  9999
2 40042  98.1018 151.9304 0009795   9.2331 350.9079 15.18636541597442
TIGRISAT                
1 40043U 14033AK  25160.93912124  .00001802  00000+0  22368-3 0  9991
2 40043  97.7354 316.2079 0050688 213.4868 146.3139 14.82953255590415
AEROCUBE 6A             
1 40045U 14033AM  25160.93329218  .00005106  00000+0  49638-3 0  9999
2 40045  97.6919 329.2070 0043379 176.9471 183.2022 14.92296406590993
AEROCUBE 6B             
1 40046U 14033AN  25160.92762674  .00005147  00000+0  48614-3 0  9994
2 40046  97.6897 328.3306 0042167 170.4178 189.7856 14.93475671591089
CANX-4                  
1 40055U 14034C   25161.56388680  .00000754  00000+0  10659-3 0  9994
2 40055  98.3624  17.3306 0014102 121.2359 239.0236 14.80221929589565
CANX-5                  
1 40056U 14034D   25160.55231440  .00000852  00000+0  11946-3 0  9993
2 40056  98.3628  16.2995 0014053 124.4152 235.8390 14.80234088580198
UKUBE-1                 
1 40074U 14037F   25160.83210408  .00006694  00000+0  47078-3 0  9993
2 40074  98.3935 123.1597 0002019  35.0836 325.0521 15.05460956592385
BRITE-PL2 (HEWELIUSZ)   
1 40119U 14049B   25160.82152979  .00001537  00000+0  15497-3 0  9994
2 40119  97.8906 266.0570 0013179 262.7980  97.1741 14.92564993585860
AEROCUBE 5C             
1 40965U 15058B   25160.87751614  .00003255  00000+0  28622-3 0  9993
2 40965  64.7688 338.3567 0164703 200.3778 159.0712 14.88522916310182
AEROCUBE 7              
1 40966U 15058C   25160.87601220  .00004877  00000+0  39474-3 0  9999
2 40966  64.7647 327.5669 0156503 200.3263 159.1578 14.91788109310362
FOX-1A (AO-85)          
1 40967U 15058D   25160.86830337  .00002938  00000+0  26630-3 0  9998
2 40967  64.7764 353.5277 0161055 195.4109 164.2068 14.88020413 58114
SINOD-D 1               
1 40968U 15058E   25160.88301918  .00004527  00000+0  37327-3 0  9990
2 40968  64.7765 341.2865 0150825 194.4196 165.2592 14.91827675 61049
SNAP-3 ALICE            
1 40970U 15058G   25160.66690557  .00024612  00000+0  10100-2 0  9995
2 40970  64.7662 264.7040 0086131 195.7866 164.0574 15.20801730 59689
LMRST-SAT               
1 40971U 15058H   25160.87432476  .00002774  00000+0  25231-3 0  9990
2 40971  64.7766 349.2396 0163384 196.8646 162.6998 14.87771878 58114
SNAP-3 EDDIE            
1 40972U 15058J   25160.64942127  .00025816  00000+0  10320-2 0  9999
2 40972  64.7580 257.3209 0091020 197.6235 162.1730 15.21254260 61798
PROPCUBE 3              
1 40973U 15058K   25160.87026137  .00004081  00000+0  34112-3 0  9996
2 40973  64.7699 332.7626 0158003 198.7533 160.7720 14.90723744 59231
BISONSAT                
1 40974U 15058L   25160.73742008  .00012227  00000+0  71971-3 0  9999
2 40974  64.7642 288.1652 0120854 197.4542 162.2409 15.05930160 59344
SNAP-3 JIMI             
1 40975U 15058M   25160.86594882  .00007064  00000+0  51267-3 0  9998
2 40975  64.7674 312.8807 0142745 198.0051 161.5982 14.96771581 58393
PROPCUBE 1 (FLORA)      
1 40976U 15058N   25160.90097211  .00002324  00000+0  22178-3 0  9991
2 40976  64.7757   6.7207 0162929 198.5691 160.9433 14.86464485 60871
SINOD-D 3               
1 40977U 15058P   25160.87314657  .00003705  00000+0  32028-3 0  9993
2 40977  64.7739 355.1479 0152881 197.9301 161.6385 14.90193759 59208
HORYU-4                 
1 41340U 16012D   25159.63321057  .00017815  00000+0  47555-3 0  9991
2 41340  30.9954 138.3031 0005842  45.4419 314.6703 15.36842620512648
RAVAN                   
1 41849U 16067B   25160.58061096  .00012600  00000+0  43246-3 0  9995
2 41849  98.0441   9.5874 0008096 230.3312 129.7213 15.30277139470345
CELTEE 1                
1 41850U 16067C   25160.49922138  .00004755  00000+0  26144-3 0  9990
2 41850  98.1057 357.0728 0002432  85.1777 274.9730 15.14617161469372
OPTICUBE 04             
1 41851U 16067D   25161.48360415  .00001766  00000+0  12156-3 0  9992
2 41851  98.0918 349.3252 0015232 294.6254  65.3385 15.07252296469131
AEROCUBE 8D             
1 41852U 16067E   25160.52543375  .00005728  00000+0  28851-3 0  9996
2 41852  98.1096 358.2714 0003608 359.8542   0.2688 15.17623656469429
AEROCUBE 8C             
1 41853U 16067F   25160.59712036  .00005528  00000+0  27756-3 0  9997
2 41853  98.0938 356.1411 0004714 261.9426  98.1271 15.17748232469420
PROMETHEUS 2-1          
1 41854U 16067G   25161.57545125  .00031570  00000+0  59376-3 0  9999
2 41854  98.0754  15.0373 0005265 231.0621 129.0159 15.48501839470562
